{
  "type": "FeatureCollection",
  "features": [
    {
      "type": "Feature",
      "properties": {
        "norad_id": 44333,
        "name": "AT&T T-16",
        "group": "intelsat",
        "lat": 0.02298778112564934,
        "lon": 77.43335421846727,
        "alt_km": 35785.20345595502,
        "timestamp": "2025-12-22T05:49:03.150628+00:00",
        "meta_object_name": "AT&T T-16",
        "meta_object_id": "2019-034A",
        "meta_epoch": "2025-12-21T16:08:30.836832",
        "meta_mean_motion": 1.00269018,
        "meta_eccentricity": 0.0001273,
        "meta_inclination": 0.0178,
        "meta_ra_of_asc_node": 58.6354,
        "meta_arg_of_pericenter": 90.9661,
        "meta_mean_anomaly": 82.1626,
        "meta_ephemeris_type": 0,
        "meta_classification_type": "U",
        "meta_norad_cat_id": 44333,
        "meta_element_set_no": 999,
        "meta_rev_at_epoch": 2385,
        "meta_bstar": 0,
        "meta_mean_motion_dot": -9.3e-07,
        "meta_mean_motion_ddot": 0,
        "tle_line1": "1 44333U 19034A   25355.67257913 -.00000093  00000+0  00000+0 0  9995",
        "tle_line2": "2 44333   0.0178  58.6354 0001273  90.9661  82.1626  1.00269018 23850"
      },
      "geometry": {
        "type": "Point",
        "coordinates": [
          77.43335421846727,
          0.02298778112564934
        ]
      }
    },
    {
      "type": "Feature",
      "properties": {
        "norad_id": 44476,
        "name": "INTELSAT 39 (IS-39)",
        "group": "intelsat",
        "lat": -0.0059365775117175435,
        "lon": -119.73822506801719,
        "alt_km": 35787.24593237069,
        "timestamp": "2025-12-22T05:49:03.150639+00:00",
        "meta_object_name": "INTELSAT 39 (IS-39)",
        "meta_object_id": "2019-049B",
        "meta_epoch": "2025-12-21T11:46:48.398880",
        "meta_mean_motion": 1.00270807,
        "meta_eccentricity": 0.0001101,
        "meta_inclination": 0.0011,
        "meta_ra_of_asc_node": 79.4939,
        "meta_arg_of_pericenter": 59.3805,
        "meta_mean_anomaly": 190.0826,
        "meta_ephemeris_type": 0,
        "meta_classification_type": "U",
        "meta_norad_cat_id": 44476,
        "meta_element_set_no": 999,
        "meta_rev_at_epoch": 2334,
        "meta_bstar": 0,
        "meta_mean_motion_dot": 5.6e-07,
        "meta_mean_motion_ddot": 0,
        "tle_line1": "1 44476U 19049B   25355.49083795  .00000056  00000+0  00000+0 0  9992",
        "tle_line2": "2 44476   0.0011  79.4939 0001101  59.3805 190.0826  1.00270807 23346"
      },
      "geometry": {
        "type": "Point",
        "coordinates": [
          -119.73822506801719,
          -0.0059365775117175435
        ]
      }
    },
    {
      "type": "Feature",
      "properties": {
        "norad_id": 46114,
        "name": "GALAXY 30 (G-30)",
        "group": "intelsat",
        "lat": 0.03405718443972663,
        "lon": 53.32586328634247,
        "alt_km": 35793.623470711536,
        "timestamp": "2025-12-22T05:49:03.150651+00:00",
        "meta_object_name": "GALAXY 30 (G-30)",
        "meta_object_id": "2020-056C",
        "meta_epoch": "2025-12-21T16:01:38.993952",
        "meta_mean_motion": 1.00270015,
        "meta_eccentricity": 0.0001993,
        "meta_inclination": 0.018,
        "meta_ra_of_asc_node": 2.4578,
        "meta_arg_of_pericenter": 263.7484,
        "meta_mean_anomaly": 299.7012,
        "meta_ephemeris_type": 0,
        "meta_classification_type": "U",
        "meta_norad_cat_id": 46114,
        "meta_element_set_no": 999,
        "meta_rev_at_epoch": 1951,
        "meta_bstar": 0,
        "meta_mean_motion_dot": 5.9e-07,
        "meta_mean_motion_ddot": 0,
        "tle_line1": "1 46114U 20056C   25355.66781243  .00000059  00000+0  00000+0 0  9998",
        "tle_line2": "2 46114   0.0180   2.4578 0001993 263.7484 299.7012  1.00270015 19511"
      },
      "geometry": {
        "type": "Point",
        "coordinates": [
          53.32586328634247,
          0.03405718443972663
        ]
      }
    },
    {
      "type": "Feature",
      "properties": {
        "norad_id": 54026,
        "name": "GALAXY 33 (G-33)",
        "group": "intelsat",
        "lat": 0.03108058407123924,
        "lon": 45.31228782162473,
        "alt_km": 35792.28643498978,
        "timestamp": "2025-12-22T05:49:03.150663+00:00",
        "meta_object_name": "GALAXY 33 (G-33)",
        "meta_object_id": "2022-128A",
        "meta_epoch": "2025-12-21T15:59:24.209088",
        "meta_mean_motion": 1.00269038,
        "meta_eccentricity": 0.0001546,
        "meta_inclination": 0.0209,
        "meta_ra_of_asc_node": 302.3469,
        "meta_arg_of_pericenter": 315.8581,
        "meta_mean_anomaly": 299.1305,
        "meta_ephemeris_type": 0,
        "meta_classification_type": "U",
        "meta_norad_cat_id": 54026,
        "meta_element_set_no": 999,
        "meta_rev_at_epoch": 1196,
        "meta_bstar": 0,
        "meta_mean_motion_dot": 1.02e-06,
        "meta_mean_motion_ddot": 0,
        "tle_line1": "1 54026U 22128A   25355.66625242  .00000102  00000+0  00000+0 0  9996",
        "tle_line2": "2 54026   0.0209 302.3469 0001546 315.8581 299.1305  1.00269038 11969"
      },
      "geometry": {
        "type": "Point",
        "coordinates": [
          45.31228782162473,
          0.03108058407123924
        ]
      }
    },
    {
      "type": "Feature",
      "properties": {
        "norad_id": 54027,
        "name": "GALAXY 34 (G-34)",
        "group": "intelsat",
        "lat": 0.04227370198047121,
        "lon": 49.39508414495076,
        "alt_km": 35789.24683227183,
        "timestamp": "2025-12-22T05:49:03.150675+00:00",
        "meta_object_name": "GALAXY 34 (G-34)",
        "meta_object_id": "2022-128B",
        "meta_epoch": "2025-12-21T16:00:31.601088",
        "meta_mean_motion": 1.00279661,
        "meta_eccentricity": 0.0001944,
        "meta_inclination": 0.0247,
        "meta_ra_of_asc_node": 334.3869,
        "meta_arg_of_pericenter": 303.8848,
        "meta_mean_anomaly": 283.3991,
        "meta_ephemeris_type": 0,
        "meta_classification_type": "U",
        "meta_norad_cat_id": 54027,
        "meta_element_set_no": 999,
        "meta_rev_at_epoch": 1213,
        "meta_bstar": 0,
        "meta_mean_motion_dot": 0,
        "meta_mean_motion_ddot": 0,
        "tle_line1": "1 54027U 22128B   25355.66703242  .00000000  00000+0  00000+0 0  9991",
        "tle_line2": "2 54027   0.0247 334.3869 0001944 303.8848 283.3991  1.00279661 12135"
      },
      "geometry": {
        "type": "Point",
        "coordinates": [
          49.39508414495076,
          0.04227370198047121
        ]
      }
    },
    {
      "type": "Feature",
      "properties": {
        "norad_id": 54243,
        "name": "GALAXY 31 (G-31)",
        "group": "intelsat",
        "lat": 0.0045917186578962235,
        "lon": 57.31510432256503,
        "alt_km": 35790.53254156282,
        "timestamp": "2025-12-22T05:49:03.150686+00:00",
        "meta_object_name": "GALAXY 31 (G-31)",
        "meta_object_id": "2022-153A",
        "meta_epoch": "2025-12-21T07:29:09.697056",
        "meta_mean_motion": 1.00271234,
        "meta_eccentricity": 0.00013856,
        "meta_inclination": 0.0226,
        "meta_ra_of_asc_node": 88.887,
        "meta_arg_of_pericenter": 190.6923,
        "meta_mean_anomaly": 161.8441,
        "meta_ephemeris_type": 0,
        "meta_classification_type": "U",
        "meta_norad_cat_id": 54243,
        "meta_element_set_no": 999,
        "meta_rev_at_epoch": 534,
        "meta_bstar": 0,
        "meta_mean_motion_dot": 3.6e-07,
        "meta_mean_motion_ddot": 0,
        "tle_line1": "1 54243U 22153A   25355.31191779  .00000036  00000+0  00000+0 0  9996",
        "tle_line2": "2 54243   0.0226  88.8870 0001385 190.6923 161.8441  1.00271234  5343"
      },
      "geometry": {
        "type": "Point",
        "coordinates": [
          57.31510432256503,
          0.0045917186578962235
        ]
      }
    },
    {
      "type": "Feature",
      "properties": {
        "norad_id": 54244,
        "name": "GALAXY 32 (G-32)",
        "group": "intelsat",
        "lat": 0.03296910998999802,
        "lon": 87.32156400796458,
        "alt_km": 35791.48713331706,
        "timestamp": "2025-12-22T05:49:03.150698+00:00",
        "meta_object_name": "GALAXY 32 (G-32)",
        "meta_object_id": "2022-153B",
        "meta_epoch": "2025-12-21T04:12:15.832800",
        "meta_mean_motion": 1.00270554,
        "meta_eccentricity": 0.0001949,
        "meta_inclination": 0.0108,
        "meta_ra_of_asc_node": 337.5471,
        "meta_arg_of_pericenter": 342.4382,
        "meta_mean_anomaly": 102.082,
        "meta_ephemeris_type": 0,
        "meta_classification_type": "U",
        "meta_norad_cat_id": 54244,
        "meta_element_set_no": 999,
        "meta_rev_at_epoch": 1135,
        "meta_bstar": 0,
        "meta_mean_motion_dot": -1.51e-06,
        "meta_mean_motion_ddot": 0,
        "tle_line1": "1 54244U 22153B   25355.17518325 -.00000151  00000+0  00000+0 0  9990",
        "tle_line2": "2 54244   0.0108 337.5471 0001949 342.4382 102.0820  1.00270554 11356"
      },
      "geometry": {
        "type": "Point",
        "coordinates": [
          87.32156400796458,
          0.03296910998999802
        ]
      }
    }
  ]
}